{
  "type": "FeatureCollection",
  "features": [
    {
      "type": "Feature",
      "properties": {
        "norad_id": 31307,
        "name": "GALAXY 17 (G-17)",
        "group": "intelsat",
        "lat": 0.7828683923259594,
        "lon": -116.67874678625887,
        "alt_km": 35760.5726000011,
        "timestamp": "2025-12-05T16:54:14.337104+00:00",
        "meta_object_name": "GALAXY 17 (G-17)",
        "meta_object_id": "2007-016B",
        "meta_epoch": "2025-12-05T03:01:12.691776",
        "meta_mean_motion": 1.00270194,
        "meta_eccentricity": 0.00061167,
        "meta_inclination": 2.4797,
        "meta_ra_of_asc_node": 82.3719,
        "meta_arg_of_pericenter": 158.6694,
        "meta_mean_anomaly": 153.4482,
        "meta_ephemeris_type": 0,
        "meta_classification_type": "U",
        "meta_norad_cat_id": 31307,
        "meta_element_set_no": 999,
        "meta_rev_at_epoch": 6785,
        "meta_bstar": 0,
        "meta_mean_motion_dot": -1.95e-06,
        "meta_mean_motion_ddot": 0,
        "tle_line1": "1 31307U 07016B   25339.12584134 -.00000195  00000+0  00000+0 0  9992",
        "tle_line2": "2 31307   2.4797  82.3719 0006116 158.6694 153.4482  1.00270194 67855"
      },
      "geometry": {
        "type": "Point",
        "coordinates": [
          -116.67874678625887,
          0.7828683923259594
        ]
      }
    },
    {
      "type": "Feature",
      "properties": {
        "norad_id": 31862,
        "name": "DIRECTV 10",
        "group": "intelsat",
        "lat": 0.0043708485309508615,
        "lon": -134.48874420623358,
        "alt_km": 35785.03464615094,
        "timestamp": "2025-12-05T16:54:14.337115+00:00",
        "meta_object_name": "DIRECTV 10",
        "meta_object_id": "2007-032A",
        "meta_epoch": "2025-12-05T04:26:38.705280",
        "meta_mean_motion": 1.0027169,
        "meta_eccentricity": 2.866e-05,
        "meta_inclination": 0.0034,
        "meta_ra_of_asc_node": 79.6557,
        "meta_arg_of_pericenter": 119.3899,
        "meta_mean_anomaly": 199.0698,
        "meta_ephemeris_type": 0,
        "meta_classification_type": "U",
        "meta_norad_cat_id": 31862,
        "meta_element_set_no": 999,
        "meta_rev_at_epoch": 4364,
        "meta_bstar": 0,
        "meta_mean_motion_dot": -9.1e-07,
        "meta_mean_motion_ddot": 0,
        "tle_line1": "1 31862U 07032A   25339.18517020 -.00000091  00000+0  00000+0 0  9997",
        "tle_line2": "2 31862   0.0034  79.6557 0000286 119.3899 199.0698  1.00271690 43649"
      },
      "geometry": {
        "type": "Point",
        "coordinates": [
          -134.48874420623358,
          0.0043708485309508615
        ]
      }
    },
    {
      "type": "Feature",
      "properties": {
        "norad_id": 32253,
        "name": "INTELSAT 11 (IS-11)",
        "group": "intelsat",
        "lat": 1.7777521025594079,
        "lon": -135.01850714234473,
        "alt_km": 36095.04493076439,
        "timestamp": "2025-12-05T16:54:14.337126+00:00",
        "meta_object_name": "INTELSAT 11 (IS-11)",
        "meta_object_id": "2007-044B",
        "meta_epoch": "2025-12-05T04:26:38.705280",
        "meta_mean_motion": 0.99047129,
        "meta_eccentricity": 0.00092968,
        "meta_inclination": 3.0593,
        "meta_ra_of_asc_node": 81.0602,
        "meta_arg_of_pericenter": 162.2668,
        "meta_mean_anomaly": 156.5385,
        "meta_ephemeris_type": 0,
        "meta_classification_type": "U",
        "meta_norad_cat_id": 32253,
        "meta_element_set_no": 999,
        "meta_rev_at_epoch": 6652,
        "meta_bstar": 0,
        "meta_mean_motion_dot": 3.3e-07,
        "meta_mean_motion_ddot": 0,
        "tle_line1": "1 32253U 07044B   25339.18517020  .00000033  00000+0  00000+0 0  9990",
        "tle_line2": "2 32253   3.0593  81.0602 0009296 162.2668 156.5385  0.99047129 66524"
      },
      "geometry": {
        "type": "Point",
        "coordinates": [
          -135.01850714234473,
          1.7777521025594079
        ]
      }
    },
    {
      "type": "Feature",
      "properties": {
        "norad_id": 32388,
        "name": "HORIZONS-2",
        "group": "intelsat",
        "lat": 0.2847564052887585,
        "lon": -105.48091797463888,
        "alt_km": 35765.12548270323,
        "timestamp": "2025-12-05T16:54:14.337137+00:00",
        "meta_object_name": "HORIZONS-2",
        "meta_object_id": "2007-063B",
        "meta_epoch": "2025-12-05T06:07:38.867808",
        "meta_mean_motion": 1.00271485,
        "meta_eccentricity": 0.00050647,
        "meta_inclination": 2.1009,
        "meta_ra_of_asc_node": 83.0433,
        "meta_arg_of_pericenter": 182.767,
        "meta_mean_anomaly": 186.6364,
        "meta_ephemeris_type": 0,
        "meta_classification_type": "U",
        "meta_norad_cat_id": 32388,
        "meta_element_set_no": 999,
        "meta_rev_at_epoch": 6587,
        "meta_bstar": 0,
        "meta_mean_motion_dot": -2.43e-06,
        "meta_mean_motion_ddot": 0,
        "tle_line1": "1 32388U 07063B   25339.25531097 -.00000243  00000+0  00000+0 0  9992",
        "tle_line2": "2 32388   2.1009  83.0433 0005064 182.7670 186.6364  1.00271485 65873"
      },
      "geometry": {
        "type": "Point",
        "coordinates": [
          -105.48091797463888,
          0.2847564052887585
        ]
      }
    },
    {
      "type": "Feature",
      "properties": {
        "norad_id": 32729,
        "name": "DIRECTV 11",
        "group": "intelsat",
        "lat": 0.009093713548046334,
        "lon": -130.8879418482364,
        "alt_km": 35785.73274800537,
        "timestamp": "2025-12-05T16:54:14.337147+00:00",
        "meta_object_name": "DIRECTV 11",
        "meta_object_id": "2008-013A",
        "meta_epoch": "2025-12-04T23:31:39.011232",
        "meta_mean_motion": 1.00272577,
        "meta_eccentricity": 2.01e-05,
        "meta_inclination": 0.0165,
        "meta_ra_of_asc_node": 145.0638,
        "meta_arg_of_pericenter": 3.9969,
        "meta_mean_anomaly": 178.7018,
        "meta_ephemeris_type": 0,
        "meta_classification_type": "U",
        "meta_norad_cat_id": 32729,
        "meta_element_set_no": 999,
        "meta_rev_at_epoch": 4364,
        "meta_bstar": 0,
        "meta_mean_motion_dot": -1.13e-06,
        "meta_mean_motion_ddot": 0,
        "tle_line1": "1 32729U 08013A   25338.98031263 -.00000113  00000+0  00000+0 0  9992",
        "tle_line2": "2 32729   0.0165 145.0638 0000201   3.9969 178.7018  1.00272577 43643"
      },
      "geometry": {
        "type": "Point",
        "coordinates": [
          -130.8879418482364,
          0.009093713548046334
        ]
      }
    },
    {
      "type": "Feature",
      "properties": {
        "norad_id": 32951,
        "name": "GALAXY 18 (G-18)",
        "group": "intelsat",
        "lat": -0.017507808084108352,
        "lon": -154.7344171566211,
        "alt_km": 35777.525084291905,
        "timestamp": "2025-12-05T16:54:14.337158+00:00",
        "meta_object_name": "GALAXY 18 (G-18)",
        "meta_object_id": "2008-024A",
        "meta_epoch": "2025-12-05T06:15:46.548288",
        "meta_mean_motion": 1.00269571,
        "meta_eccentricity": 0.00033352,
        "meta_inclination": 0.0153,
        "meta_ra_of_asc_node": 14.1824,
        "meta_arg_of_pericenter": 240.7415,
        "meta_mean_anomaly": 150.3372,
        "meta_ephemeris_type": 0,
        "meta_classification_type": "U",
        "meta_norad_cat_id": 32951,
        "meta_element_set_no": 999,
        "meta_rev_at_epoch": 4390,
        "meta_bstar": 0,
        "meta_mean_motion_dot": 3.7e-07,
        "meta_mean_motion_ddot": 0,
        "tle_line1": "1 32951U 08024A   25339.26095542  .00000037  00000+0  00000+0 0  9997",
        "tle_line2": "2 32951   0.0153  14.1824 0003335 240.7415 150.3372  1.00269571 43906"
      },
      "geometry": {
        "type": "Point",
        "coordinates": [
          -154.7344171566211,
          -0.017507808084108352
        ]
      }
    },
    {
      "type": "Feature",
      "properties": {
        "norad_id": 33153,
        "name": "INTELSAT 25 (IS-25)",
        "group": "intelsat",
        "lat": -1.2552712242966904,
        "lon": -63.169783548046716,
        "alt_km": 35767.602177638226,
        "timestamp": "2025-12-05T16:54:14.337183+00:00",
        "meta_object_name": "INTELSAT 25 (IS-25)",
        "meta_object_id": "2008-034A",
        "meta_epoch": "2025-12-05T03:16:26.232672",
        "meta_mean_motion": 1.00270993,
        "meta_eccentricity": 0.00054336,
        "meta_inclination": 2.2069,
        "meta_ra_of_asc_node": 82.7344,
        "meta_arg_of_pericenter": 179.3923,
        "meta_mean_anomaly": 189.6903,
        "meta_ephemeris_type": 0,
        "meta_classification_type": "U",
        "meta_norad_cat_id": 33153,
        "meta_element_set_no": 999,
        "meta_rev_at_epoch": 6375,
        "meta_bstar": 0,
        "meta_mean_motion_dot": -2.13e-06,
        "meta_mean_motion_ddot": 0,
        "tle_line1": "1 33153U 08034A   25339.13641473 -.00000213  00000+0  00000+0 0  9996",
        "tle_line2": "2 33153   2.2069  82.7344 0005433 179.3923 189.6903  1.00270993 63751"
      },
      "geometry": {
        "type": "Point",
        "coordinates": [
          -63.169783548046716,
          -1.2552712242966904
        ]
      }
    }
  ]
}